CSS (TIANHE)            
1 48274U 21035A   26196.15084786  .00001188  00000+0  19607-4 0  9993
2 48274  41.4681 152.0989 0001842 294.2158  65.8488 15.58088411297537
